[{"OBJECT_NAME":"STARLINK-34842","OBJECT_ID":"2025-179A","EPOCH":"2026-03-09T16:42:15.213024","MEAN_MOTION":15.05618791,"ECCENTRICITY":6.063e-5,"INCLINATION":97.6023,"RA_OF_ASC_NODE":113.0364,"ARG_OF_PERICENTER":120.466,"MEAN_ANOMALY":239.6626,"EPHEMERIS_TYPE":0,"CLASSIFICATION_TYPE":"U","NORAD_CAT_ID":65235,"ELEMENT_SET_NO":999,"REV_AT_EPOCH":3188,"BSTAR":-0.00041854675,"MEAN_MOTION_DOT":-6.09e-5,"MEAN_MOTION_DDOT":0},{"OBJECT_NAME":"SL-8 DEB","OBJECT_ID":"1965-020EN","EPOCH":"2026-03-09T21:30:01.358784","MEAN_MOTION":14.21304929,"ECCENTRICITY":0.03828379,"INCLINATION":56.171,"RA_OF_ASC_NODE":335.2447,"ARG_OF_PERICENTER":331.0415,"MEAN_ANOMALY":26.9803,"EPHEMERIS_TYPE":0,"CLASSIFICATION_TYPE":"U","NORAD_CAT_ID":3038,"ELEMENT_SET_NO":999,"REV_AT_EPOCH":21169,"BSTAR":0.0030592028,"MEAN_MOTION_DOT":0.00014042,"MEAN_MOTION_DDOT":0}]
